NORAD_CAT_ID,OBJECT_NAME,OBJECT_TYPE,EPOCH,MEAN_MOTION,ECCENTRICITY,INCLINATION,RA_OF_ASC_NODE,ARG_OF_PERICENTER,MEAN_ANOMALY,BSTAR,MEAN_MOTION_DOT,MEAN_MOTION_DDOT,TLE_LINE0,TLE_LINE1,TLE_LINE2,SEMIMAJOR_AXIS,PERIOD,APOGEE,PERIGEE,DECAYED
53550.0,STARLINK-4518,PAYLOAD,2023-04-03 12:07:59,15.08835433,0.0001582,53.2162,192.8537,99.9211,260.196,0.00010285,1.349e-05,0.0,0 STARLINK-4518,1 53550U 22101Z   23093.50555391  .00001349  00000-0  10285-3 0  9990,2 53550  53.2162 192.8537 0001582  99.9211 260.1960 15.08835433 34596,6917.894,95.438,540.854,538.665,0.0
53550.0,STARLINK-4518,PAYLOAD,2023-04-03 23:15:41,15.08847234,0.0001406,53.2156,190.7723,87.3554,272.7599,2.6579e-05,1.35e-06,0.0,0 STARLINK-4518,1 53550U 22101Z   23093.96922697  .00000135  00000-0  26579-4 0  9993,2 53550  53.2156 190.7723 0001406  87.3554 272.7599 15.08847234 34666,6917.858,95.437,540.696,538.751,0.0
53550.0,STARLINK-4518,PAYLOAD,2023-04-04 11:58:47,15.08838654,0.0001507,53.2174,188.3983,99.331,260.7852,0.00016385,2.321e-05,0.0,0 STARLINK-4518,1 53550U 22101Z   23094.49915514  .00002321  00000-0  16385-3 0  9994,2 53550  53.2174 188.3983 0001507  99.3310 260.7852 15.08838654 34746,6917.885,95.438,540.792,538.707,0.0
53550.0,STARLINK-4518,PAYLOAD,2023-04-04 18:20:19,15.08849132,0.0001511,53.2154,187.2031,88.71,271.4065,0.000292,4.363e-05,0.0,0 STARLINK-4518,1 53550U 22101Z   23094.76410998  .00004363  00000-0  29200-3 0  9998,2 53550  53.2154 187.2031 0001511  88.7100 271.4065 15.08849132 35446,6917.852,95.437,540.763,538.672,0.0
53550.0,STARLINK-4518,PAYLOAD,2023-04-05 05:28:01,15.08830531,0.0001212,53.2167,185.1227,75.2125,284.9001,-1.0337e-07,-2.89e-06,0.0,0 STARLINK-4518,1 53550U 22101Z   23095.22779936 -.00000289  00000-0 -10337-6 0  9999,2 53550  53.2167 185.1227 0001212  75.2125 284.9001 15.08830531 34856,6917.909,95.438,540.613,538.936,0.0
53550.0,STARLINK-4518,PAYLOAD,2023-04-05 13:24:57,15.08843054,0.0001383,53.2149,183.6343,87.2833,272.8317,0.00011808,1.592e-05,0.0,0 STARLINK-4518,1 53550U 22101Z   23095.55899329  .00001592  00000-0  11808-3 0  9991,2 53550  53.2149 183.6343 0001383  87.2833 272.8317 15.08843054 34902,6917.871,95.437,540.693,538.779,0.0
53550.0,STARLINK-4518,PAYLOAD,2023-04-06 11:40:20,15.08844205,0.0001557,53.2152,179.4714,76.8561,283.2605,0.00016443,2.33e-05,0.0,0 STARLINK-4518,1 53550U 22101Z   23096.48635414  .00002330  00000-0  16443-3 0  9998,2 53550  53.2152 179.4714 0001557  76.8561 283.2605 15.08844205 35700,6917.868,95.437,540.81,538.655,0.0
53550.0,STARLINK-4518,PAYLOAD,2023-04-06 14:51:07,15.0884876,0.0001573,53.2145,178.876,83.0303,277.0868,0.00016264,2.302e-05,0.0,0 STARLINK-4518,1 53550U 22101Z   23096.61883164  .00002302  00000-0  16264-3 0  9990,2 53550  53.2145 178.8760 0001573  83.0303 277.0868 15.08848760 35069,6917.854,95.437,540.807,538.63,0.0
53550.0,STARLINK-4518,PAYLOAD,2023-04-07 05:09:35,15.08841503,0.00016,53.2143,176.1997,81.9473,278.1701,0.00017764,2.54e-05,0.0,0 STARLINK-4518,1 53550U 22101Z   23097.21499559  .00002540  00000-0  17764-3 0  9998,2 53550  53.2143 176.1997 0001600  81.9473 278.1701 15.08841503 35152,6917.876,95.437,540.848,538.634,0.0
53550.0,STARLINK-4518,PAYLOAD,2023-04-07 11:31:08,15.08844032,0.0001571,53.2145,175.0109,76.9718,283.1449,0.00015508,2.181e-05,0.0,0 STARLINK-4518,1 53550U 22101Z   23097.47995429  .00002181  00000-0  15508-3 0  9998,2 53550  53.2145 175.0109 0001571  76.9718 283.1449 15.08844032 35852,6917.868,95.437,540.82,538.646,0.0
53550.0,STARLINK-4518,PAYLOAD,2023-04-08 11:21:54,15.08845201,0.0001392,53.2146,170.5473,107.5114,252.6031,5.3741e-05,5.68e-06,0.0,0 STARLINK-4518,1 53550U 22101Z   23098.47355090  .00000568  00000-0  53741-4 0  9992,2 53550  53.2146 170.5473 0001392 107.5114 252.6031 15.08845201 35340,6917.864,95.437,540.692,538.767,0.0
53550.0,STARLINK-4518,PAYLOAD,2023-04-09 04:51:09,15.08838596,0.0001475,53.2145,167.281,75.5879,284.5277,9.7566e-05,1.265e-05,0.0,0 STARLINK-4518,1 53550U 22101Z   23099.20219692  .00001265  00000-0  97566-4 0  9999,2 53550  53.2145 167.2810 0001475  75.5879 284.5277 15.08838596 35458,6917.885,95.438,540.77,538.729,0.0
53550.0,STARLINK-4518,PAYLOAD,2023-04-09 11:12:42,15.0883995,0.0001399,53.2147,166.0876,101.1426,258.9723,3.1441e-06,-2.38e-06,0.0,0 STARLINK-4518,1 53550U 22101Z   23099.46715477 -.00000238  00000-0  31441-5 0  9990,2 53550  53.2147 166.0876 0001399 101.1426 258.9723 15.08839950 36152,6917.881,95.438,540.713,538.778,0.0
53550.0,STARLINK-4518,PAYLOAD,2023-04-09 14:23:28,15.0884043,0.0001362,53.2146,165.4938,95.7101,264.4047,4.9138e-05,4.94e-06,0.0,0 STARLINK-4518,1 53550U 22101Z   23099.59963480  .00000494  00000-0  49138-4 0  9997,2 53550  53.2146 165.4938 0001362  95.7101 264.4047 15.08840430 36179,6917.879,95.438,540.686,538.802,0.0
53550.0,STARLINK-4518,PAYLOAD,2023-04-10 07:52:42,15.08840471,0.0001319,53.2153,162.2224,99.9727,260.1414,9.2962e-05,1.192e-05,0.0,0 STARLINK-4518,1 53550U 22101Z   23100.32827539  .00001192  00000-0  92962-4 0  9994,2 53550  53.2153 162.2224 0001319  99.9727 260.1414 15.08840471 35627,6917.879,95.438,540.656,538.831,0.0
53550.0,STARLINK-4518,PAYLOAD,2023-04-10 20:35:47,15.08853234,0.0001309,53.216,159.8444,117.5013,242.6112,-8.0302e-06,-4.16e-06,0.0,0 STARLINK-4518,1 53550U 22101Z   23100.85818683 -.00000416  00000-0 -80302-5 0  9998,2 53550  53.2160 159.8444 0001309 117.5013 242.6112 15.08853234 35705,6917.84,95.437,540.61,538.799,0.0
53550.0,STARLINK-4518,PAYLOAD,2023-04-11 10:54:15,15.08844337,0.0001336,53.2163,157.1686,95.2328,264.8816,0.000142,1.973e-05,0.0,0 STARLINK-4518,1 53550U 22101Z   23101.45435172  .00001973  00000-0  14200-3 0  9992,2 53550  53.2163 157.1686 0001336  95.2328 264.8816 15.08844337 36452,6917.867,95.437,540.656,538.808,0.0
53550.0,STARLINK-4518,PAYLOAD,2023-04-11 20:26:35,15.08838865,0.0001276,53.2162,155.3845,84.8252,275.2885,2.4309e-05,9.9e-07,0.0,0 STARLINK-4518,1 53550U 22101Z   23101.85179763  .00000099  00000-0  24309-4 0  9997,2 53550  53.2162 155.3845 0001276  84.8252 275.2885 15.08838865 36519,6917.884,95.438,540.632,538.866,0.0
53550.0,STARLINK-4518,PAYLOAD,2023-04-12 12:20:27,15.08831835,0.000132,53.2175,152.4117,86.7007,273.4136,-2.5231e-05,-6.89e-06,0.0,0 STARLINK-4518,1 53550U 22101Z   23102.51420635 -.00000689  00000-0 -25231-4 0  9990,2 53550  53.2175 152.4117 0001320  86.7007 273.4136 15.08831835 36612,6917.905,95.438,540.684,538.857,0.0
53550.0,STARLINK-4518,PAYLOAD,2023-04-13 10:35:50,15.08845797,0.0001388,53.2164,148.2476,94.576,265.539,8.178e-05,1.014e-05,0.0,0 STARLINK-4518,1 53550U 22101Z   23103.44155479  .00001014  00000-0  81780-4 0  9996,2 53550  53.2164 148.2476 0001388  94.5760 265.5390 15.08845797 36759,6917.863,95.437,540.688,538.767,0.0
53550.0,STARLINK-4518,PAYLOAD,2023-04-13 15:21:59,15.08849555,0.0001379,53.2157,147.3546,93.8988,266.2161,0.00011582,1.556e-05,0.0,0 STARLINK-4518,1 53550U 22101Z   23103.64027076  .00001556  00000-0  11582-3 0  9992,2 53550  53.2157 147.3546 0001379  93.8988 266.2161 15.08849555 36124,6917.851,95.437,540.67,538.762,0.0
53550.0,STARLINK-4518,PAYLOAD,2023-04-13 20:08:09,15.08833895,6.59e-05,53.2169,146.4634,96.7798,263.3269,4.1084e-05,3.66e-06,0.0,0 STARLINK-4518,1 53550U 22101Z   23103.83900038  .00000366  00000-0  41084-4 0  9990,2 53550  53.2169 146.4634 0000659  96.7798 263.3269 15.08833895 36156,6917.899,95.438,540.22,539.308,0.0
53550.0,STARLINK-4518,PAYLOAD,2023-04-14 08:51:14,15.08841083,0.0001283,53.2151,144.0831,89.5665,270.5474,0.00018683,2.687e-05,0.0,0 STARLINK-4518,1 53550U 22101Z   23104.36891916  .00002687  00000-0  18683-3 0  9999,2 53550  53.2151 144.0831 0001283  89.5665 270.5474 15.08841083 36894,6917.877,95.437,540.63,538.855,0.0
53550.0,STARLINK-4518,PAYLOAD,2023-04-15 08:42:01,15.0884437,0.0001455,53.2148,139.6234,86.6325,273.4833,8.2469e-05,1.025e-05,0.0,0 STARLINK-4518,1 53550U 22101Z   23105.36251872  .00001025  00000-0  82469-4 0  9990,2 53550  53.2148 139.6234 0001455  86.6325 273.4833 15.08844370 37040,6917.867,95.437,540.739,538.725,0.0
53550.0,STARLINK-4518,PAYLOAD,2023-04-15 19:49:43,15.08838508,0.0001528,53.2146,137.5424,75.6874,284.4288,-6.0507e-05,-1.251e-05,0.0,0 STARLINK-4518,1 53550U 22101Z   23105.82620096 -.00001251  00000-0 -60507-4 0  9991,2 53550  53.2146 137.5424 0001528  75.6874 284.4288 15.08838508 37114,6917.885,95.438,540.807,538.693,0.0
53550.0,STARLINK-4518,PAYLOAD,2023-04-16 08:32:49,15.08838179,0.0001488,53.2146,135.1632,82.0249,278.0912,6.3645e-05,7.25e-06,0.0,0 STARLINK-4518,1 53550U 22101Z   23106.35612298  .00000725  00000-0  63645-4 0  9994,2 53550  53.2146 135.1632 0001488  82.0249 278.0912 15.08838179 37197,6917.886,95.438,540.78,538.722,0.0
53550.0,STARLINK-4518,PAYLOAD,2023-04-17 11:34:22,15.08843914,0.0001363,53.2143,130.107,88.1451,271.9697,0.00018871,2.717e-05,0.0,0 STARLINK-4518,1 53550U 22101Z   23107.48220221  .00002717  00000-0  18871-3 0  9993,2 53550  53.2143 130.1070 0001363  88.1451 271.9697 15.08843914 37363,6917.868,95.437,540.676,538.791,0.0
53550.0,STARLINK-4518,PAYLOAD,2023-04-17 17:55:54,15.08839848,0.0001401,53.2142,128.9173,85.3117,274.8035,0.00012272,1.666e-05,0.0,0 STARLINK-4518,1 53550U 22101Z   23107.74716434  .00001666  00000-0  12272-3 0  9999,2 53550  53.2142 128.9173 0001401  85.3117 274.8035 15.08839848 37406,6917.881,95.438,540.715,538.777,0.0
53550.0,STARLINK-4518,PAYLOAD,2023-04-18 06:39:00,15.08841443,0.0001406,53.2142,126.5378,89.6632,270.4521,0.00016942,2.41e-05,0.0,0 STARLINK-4518,1 53550U 22101Z   23108.27708396  .00002410  00000-0  16942-3 0  9992,2 53550  53.2142 126.5378 0001406  89.6632 270.4521 15.08841443 36822,6917.876,95.437,540.714,538.768,0.0
53550.0,STARLINK-4518,PAYLOAD,2023-04-18 11:25:09,15.0884479,0.000141,53.2144,125.646,88.0418,272.0736,0.00018913,2.724e-05,0.0,0 STARLINK-4518,1 53550U 22101Z   23108.47580199  .00002724  00000-0  18913-3 0  9991,2 53550  53.2144 125.6460 0001410  88.0418 272.0736 15.08844790 37517,6917.866,95.437,540.706,538.755,0.0
